{"fetched_at":"2026-03-29T16:36:15Z","count":15609,"tles":[{"name":"STARLINK-34665","line1":"1 65089U 25167M   26087.87583817  .00035867  00000+0  12167-2 0  9996","line2":"2 65089  53.1582 297.8015 0001163  64.0562 296.0559 15.30214490 36419","category":"Starlink"}]}